SAOCOM 1A               
1 43641U 18076A   26100.49041911  .00000800  00000+0  10712-3 0  9999
2 43641  97.8909 288.2140 0001436  88.1127 272.0250 14.82146024406075
H-2A R/B                
1 43682U 18084L   26100.52868359  .00018045  00000+0  41078-3 0  9999
2 43682  98.8685 324.7501 0023077 272.3722  87.4879 15.42773565410682
SAOCOM 1B               
1 46265U 20059A   26100.52171824 -.00000100  00000+0 -59416-5 0  9990
2 46265  97.8895 287.3403 0001408  83.4846 276.6528 14.82154999303468
CSS (TIANHE)            
1 48274U 21035A   26100.18350541  .00027833  00000+0  30988-3 0  9995
2 48274  41.4683  16.3073 0004533 175.1456 184.9428 15.62208650282538
COSMOS 2550             
1 48865U 21056A   26100.14299956 -.00000181  00000+0  31571-6 0  9992
2 48865  67.1407 305.7383 0008399 269.3401  90.6791 15.33826857268287
CZ-2C R/B               
1 52794U 22058K   26100.24812948  .00035372  00000+0  47148-3 0  9997
2 52794  50.1865 155.6550 0040710 336.1428  23.7656 15.56738800215044
CZ-2C R/B               
1 54039U 22132E   26100.05557741  .00047105  00000+0  47718-3 0  9990
2 54039  97.2956 104.3968 0014540 342.1761  17.8987 15.65000434195272
GSLV R/B                
1 54149U 22138AN  26100.14074007  .00002125  00000+0  18139-3 0  9995
2 54149  87.3840 155.8296 0023036  43.0868 317.2162 14.96975242188631
XRISM                   
1 57800U 23137A   26100.26846497  .00005018  00000+0  28038-3 0  9998
2 57800  31.0020  79.3487 0007625 355.9807   4.0769 15.11883370142575
ACS3                    
1 59588U 24077B   26100.52208477  .00028089  00000+0  21783-1 0  9997
2 59588  97.1903  34.4828 0072913   7.6951 352.5315 13.91202927 98620
HTV-X1                  
1 66174U 25241A   26100.53836068  .00005421  00000+0  18104-3 0  9994
2 66174  51.6363 279.5106 0007355 296.8491  63.1738 15.32607380 25829
SZ-21 MODULE            
1 66515U 25246C   26100.43671141  .00039653  00000+0  30534-3 0  9991
2 66515  41.4753   7.5581 0004130 253.1440 106.8950 15.71205012 23066
