[{"OBJECT_NAME":"SAOCOM 1A","OBJECT_ID":"2018-076A","EPOCH":"2026-04-10T11:46:12.211104","MEAN_MOTION":14.82146024,"ECCENTRICITY":0.0001436,"INCLINATION":97.8909,"RA_OF_ASC_NODE":288.214,"ARG_OF_PERICENTER":88.1127,"MEAN_ANOMALY":272.025,"EPHEMERIS_TYPE":0,"CLASSIFICATION_TYPE":"U","NORAD_CAT_ID":43641,"ELEMENT_SET_NO":999,"REV_AT_EPOCH":40607,"BSTAR":0.00010712,"MEAN_MOTION_DOT":8.0e-6,"MEAN_MOTION_DDOT":0},{"OBJECT_NAME":"H-2A R/B","OBJECT_ID":"2018-084L","EPOCH":"2026-04-10T12:41:18.262176","MEAN_MOTION":15.42773565,"ECCENTRICITY":0.0023077,"INCLINATION":98.8685,"RA_OF_ASC_NODE":324.7501,"ARG_OF_PERICENTER":272.3722,"MEAN_ANOMALY":87.4879,"EPHEMERIS_TYPE":0,"CLASSIFICATION_TYPE":"U","NORAD_CAT_ID":43682,"ELEMENT_SET_NO":999,"REV_AT_EPOCH":41068,"BSTAR":0.00041078,"MEAN_MOTION_DOT":0.00018045,"MEAN_MOTION_DDOT":0},{"OBJECT_NAME":"SAOCOM 1B","OBJECT_ID":"2020-059A","EPOCH":"2026-04-10T12:31:16.455936","MEAN_MOTION":14.82154999,"ECCENTRICITY":0.0001408,"INCLINATION":97.8895,"RA_OF_ASC_NODE":287.3403,"ARG_OF_PERICENTER":83.4846,"MEAN_ANOMALY":276.6528,"EPHEMERIS_TYPE":0,"CLASSIFICATION_TYPE":"U","NORAD_CAT_ID":46265,"ELEMENT_SET_NO":999,"REV_AT_EPOCH":30346,"BSTAR":-5.9416e-6,"MEAN_MOTION_DOT":-1.0e-6,"MEAN_MOTION_DDOT":0},{"OBJECT_NAME":"CSS (TIANHE)","OBJECT_ID":"2021-035A","EPOCH":"2026-04-10T04:24:14.867424","MEAN_MOTION":15.6220865,"ECCENTRICITY":0.00045337,"INCLINATION":41.4683,"RA_OF_ASC_NODE":16.3073,"ARG_OF_PERICENTER":175.1456,"MEAN_ANOMALY":184.9428,"EPHEMERIS_TYPE":0,"CLASSIFICATION_TYPE":"U","NORAD_CAT_ID":48274,"ELEMENT_SET_NO":999,"REV_AT_EPOCH":28253,"BSTAR":0.00030988009,"MEAN_MOTION_DOT":0.00027833,"MEAN_MOTION_DDOT":0},{"OBJECT_NAME":"COSMOS 2550","OBJECT_ID":"2021-056A","EPOCH":"2026-04-10T03:25:55.161984","MEAN_MOTION":15.33826857,"ECCENTRICITY":0.00083997,"INCLINATION":67.1407,"RA_OF_ASC_NODE":305.7383,"ARG_OF_PERICENTER":269.3401,"MEAN_ANOMALY":90.6791,"EPHEMERIS_TYPE":0,"CLASSIFICATION_TYPE":"U","NORAD_CAT_ID":48865,"ELEMENT_SET_NO":999,"REV_AT_EPOCH":26828,"BSTAR":3.15712e-7,"MEAN_MOTION_DOT":-1.81e-6,"MEAN_MOTION_DDOT":0},{"OBJECT_NAME":"CZ-2C R/B","OBJECT_ID":"2022-058K","EPOCH":"2026-04-10T05:57:18.387072","MEAN_MOTION":15.567388,"ECCENTRICITY":0.004071,"INCLINATION":50.1865,"RA_OF_ASC_NODE":155.655,"ARG_OF_PERICENTER":336.1428,"MEAN_ANOMALY":23.7656,"EPHEMERIS_TYPE":0,"CLASSIFICATION_TYPE":"U","NORAD_CAT_ID":52794,"ELEMENT_SET_NO":999,"REV_AT_EPOCH":21504,"BSTAR":0.00047147712,"MEAN_MOTION_DOT":0.00035372,"MEAN_MOTION_DDOT":0},{"OBJECT_NAME":"CZ-2C R/B","OBJECT_ID":"2022-132E","EPOCH":"2026-04-10T01:20:01.888224","MEAN_MOTION":15.65000434,"ECCENTRICITY":0.00145402,"INCLINATION":97.2956,"RA_OF_ASC_NODE":104.3968,"ARG_OF_PERICENTER":342.1761,"MEAN_ANOMALY":17.8987,"EPHEMERIS_TYPE":0,"CLASSIFICATION_TYPE":"U","NORAD_CAT_ID":54039,"ELEMENT_SET_NO":999,"REV_AT_EPOCH":19527,"BSTAR":0.00047717507,"MEAN_MOTION_DOT":0.00047105,"MEAN_MOTION_DDOT":0},{"OBJECT_NAME":"GSLV R/B","OBJECT_ID":"2022-138AN","EPOCH":"2026-04-10T03:22:39.942048","MEAN_MOTION":14.96975242,"ECCENTRICITY":0.00230367,"INCLINATION":87.384,"RA_OF_ASC_NODE":155.8296,"ARG_OF_PERICENTER":43.0868,"MEAN_ANOMALY":317.2162,"EPHEMERIS_TYPE":0,"CLASSIFICATION_TYPE":"U","NORAD_CAT_ID":54149,"ELEMENT_SET_NO":999,"REV_AT_EPOCH":18863,"BSTAR":0.00018139008,"MEAN_MOTION_DOT":2.125e-5,"MEAN_MOTION_DDOT":0},{"OBJECT_NAME":"XRISM","OBJECT_ID":"2023-137A","EPOCH":"2026-04-10T06:26:35.373408","MEAN_MOTION":15.1188337,"ECCENTRICITY":0.00076252,"INCLINATION":31.002,"RA_OF_ASC_NODE":79.3487,"ARG_OF_PERICENTER":355.9807,"MEAN_ANOMALY":4.0769,"EPHEMERIS_TYPE":0,"CLASSIFICATION_TYPE":"U","NORAD_CAT_ID":57800,"ELEMENT_SET_NO":999,"REV_AT_EPOCH":14257,"BSTAR":0.00028037801,"MEAN_MOTION_DOT":5.018e-5,"MEAN_MOTION_DDOT":0},{"OBJECT_NAME":"ACS3","OBJECT_ID":"2024-077B","EPOCH":"2026-04-10T12:31:48.124128","MEAN_MOTION":13.91202927,"ECCENTRICITY":0.0072913,"INCLINATION":97.1903,"RA_OF_ASC_NODE":34.4828,"ARG_OF_PERICENTER":7.6951,"MEAN_ANOMALY":352.5315,"EPHEMERIS_TYPE":0,"CLASSIFICATION_TYPE":"U","NORAD_CAT_ID":59588,"ELEMENT_SET_NO":999,"REV_AT_EPOCH":9862,"BSTAR":0.021783,"MEAN_MOTION_DOT":0.00028089,"MEAN_MOTION_DDOT":0},{"OBJECT_NAME":"HTV-X1","OBJECT_ID":"2025-241A","EPOCH":"2026-04-10T12:55:14.362752","MEAN_MOTION":15.3260738,"ECCENTRICITY":0.0007355,"INCLINATION":51.6363,"RA_OF_ASC_NODE":279.5106,"ARG_OF_PERICENTER":296.8491,"MEAN_ANOMALY":63.1738,"EPHEMERIS_TYPE":0,"CLASSIFICATION_TYPE":"U","NORAD_CAT_ID":66174,"ELEMENT_SET_NO":999,"REV_AT_EPOCH":2582,"BSTAR":0.00018104,"MEAN_MOTION_DOT":5.421e-5,"MEAN_MOTION_DDOT":0},{"OBJECT_NAME":"SZ-21 MODULE","OBJECT_ID":"2025-246C","EPOCH":"2026-04-10T10:28:51.865824","MEAN_MOTION":15.71205012,"ECCENTRICITY":0.000413,"INCLINATION":41.4753,"RA_OF_ASC_NODE":7.5581,"ARG_OF_PERICENTER":253.144,"MEAN_ANOMALY":106.895,"EPHEMERIS_TYPE":0,"CLASSIFICATION_TYPE":"U","NORAD_CAT_ID":66515,"ELEMENT_SET_NO":999,"REV_AT_EPOCH":2306,"BSTAR":0.00030534,"MEAN_MOTION_DOT":0.00039653,"MEAN_MOTION_DDOT":0}]
